ION SCV-004             
1 50993U 22002K   26068.68892644  .00006538  00000+0  23198-3 0  9998
2 50993  97.2961 128.2294 0007216   1.6783 358.4480 15.29369331230088
STARLINK-36188          
1 67122U 25299W   26068.30350670  .00071457  00000+0  25103-2 0  9997
2 67122  43.0019 171.4824 0001202 159.1817 200.9084 15.28492358 13050
